{
  "type": "FeatureCollection",
  "features": [
    {
      "type": "Feature",
      "properties": {
        "norad_id": 30073,
        "name": "FENGYUN 1C DEB",
        "group": "fengyun-1c-debris",
        "lat": -46.0309057200759,
        "lon": 135.53251789347465,
        "alt_km": 806.6441325331061,
        "timestamp": "2025-12-17T23:38:07.127564+00:00",
        "meta_object_name": "FENGYUN 1C DEB",
        "meta_object_id": "1999-025QA",
        "meta_epoch": "2025-12-17T09:38:22.039872",
        "meta_mean_motion": 14.18696018,
        "meta_eccentricity": 0.00532114,
        "meta_inclination": 99.4118,
        "meta_ra_of_asc_node": 324.815,
        "meta_arg_of_pericenter": 267.603,
        "meta_mean_anomaly": 222.8003,
        "meta_ephemeris_type": 0,
        "meta_classification_type": "U",
        "meta_norad_cat_id": 30073,
        "meta_element_set_no": 999,
        "meta_rev_at_epoch": 96991,
        "meta_bstar": 0.0012193489,
        "meta_mean_motion_dot": 2.517e-05,
        "meta_mean_motion_ddot": 0,
        "tle_line1": "1 30073U 99025QA  25351.40164398  .00002517  00000+0  12193-2 0  9991",
        "tle_line2": "2 30073  99.4118 324.8150 0053211 267.6030 222.8003 14.18696018969911"
      },
      "geometry": {
        "type": "Point",
        "coordinates": [
          135.53251789347465,
          -46.0309057200759
        ]
      }
    },
    {
      "type": "Feature",
      "properties": {
        "norad_id": 30074,
        "name": "FENGYUN 1C DEB",
        "group": "fengyun-1c-debris",
        "lat": -52.550349437077074,
        "lon": -133.795792070127,
        "alt_km": 863.220095613281,
        "timestamp": "2025-12-17T23:38:07.127574+00:00",
        "meta_object_name": "FENGYUN 1C DEB",
        "meta_object_id": "1999-025QB",
        "meta_epoch": "2025-12-17T03:50:48.664608",
        "meta_mean_motion": 14.1288004,
        "meta_eccentricity": 0.00972067,
        "meta_inclination": 99.13,
        "meta_ra_of_asc_node": 57.4836,
        "meta_arg_of_pericenter": 139.6706,
        "meta_mean_anomaly": 221.1727,
        "meta_ephemeris_type": 0,
        "meta_classification_type": "U",
        "meta_norad_cat_id": 30074,
        "meta_element_set_no": 999,
        "meta_rev_at_epoch": 96724,
        "meta_bstar": 0.00099968076,
        "meta_mean_motion_dot": 1.9e-05,
        "meta_mean_motion_ddot": 0,
        "tle_line1": "1 30074U 99025QB  25351.16028547  .00001900  00000+0  99968-3 0  9991",
        "tle_line2": "2 30074  99.1300  57.4836 0097206 139.6706 221.1727 14.12880040967245"
      },
      "geometry": {
        "type": "Point",
        "coordinates": [
          -133.795792070127,
          -52.550349437077074
        ]
      }
    },
    {
      "type": "Feature",
      "properties": {
        "norad_id": 30075,
        "name": "FENGYUN 1C DEB",
        "group": "fengyun-1c-debris",
        "lat": -54.815887947576954,
        "lon": 55.88408848931373,
        "alt_km": 978.3882526582829,
        "timestamp": "2025-12-17T23:38:07.127585+00:00",
        "meta_object_name": "FENGYUN 1C DEB",
        "meta_object_id": "1999-025QC",
        "meta_epoch": "2025-12-17T14:21:01.295424",
        "meta_mean_motion": 13.92534877,
        "meta_eccentricity": 0.00912553,
        "meta_inclination": 99.3613,
        "meta_ra_of_asc_node": 41.9618,
        "meta_arg_of_pericenter": 163.988,
        "meta_mean_anomaly": 1.094,
        "meta_ephemeris_type": 0,
        "meta_classification_type": "U",
        "meta_norad_cat_id": 30075,
        "meta_element_set_no": 999,
        "meta_rev_at_epoch": 96132,
        "meta_bstar": 0.00019525408,
        "meta_mean_motion_dot": 2.15e-06,
        "meta_mean_motion_ddot": 0,
        "tle_line1": "1 30075U 99025QC  25351.59793166  .00000215  00000+0  19525-3 0  9994",
        "tle_line2": "2 30075  99.3613  41.9618 0091255 163.9880   1.0940 13.92534877961328"
      },
      "geometry": {
        "type": "Point",
        "coordinates": [
          55.88408848931373,
          -54.815887947576954
        ]
      }
    },
    {
      "type": "Feature",
      "properties": {
        "norad_id": 30076,
        "name": "FENGYUN 1C DEB",
        "group": "fengyun-1c-debris",
        "lat": 51.01918424539665,
        "lon": -33.046102212743506,
        "alt_km": 857.7167291837195,
        "timestamp": "2025-12-17T23:38:07.127595+00:00",
        "meta_object_name": "FENGYUN 1C DEB",
        "meta_object_id": "1999-025QD",
        "meta_epoch": "2025-12-17T10:10:02.398368",
        "meta_mean_motion": 13.7629402,
        "meta_eccentricity": 0.01757301,
        "meta_inclination": 99.2384,
        "meta_ra_of_asc_node": 338.0117,
        "meta_arg_of_pericenter": 81.5833,
        "meta_mean_anomaly": 72.474,
        "meta_ephemeris_type": 0,
        "meta_classification_type": "U",
        "meta_norad_cat_id": 30076,
        "meta_element_set_no": 999,
        "meta_rev_at_epoch": 94958,
        "meta_bstar": 0.00028729,
        "meta_mean_motion_dot": 2.72e-06,
        "meta_mean_motion_ddot": 0,
        "tle_line1": "1 30076U 99025QD  25351.42363887  .00000272  00000+0  28729-3 0  9999",
        "tle_line2": "2 30076  99.2384 338.0117 0175730  81.5833  72.4740 13.76294020949580"
      },
      "geometry": {
        "type": "Point",
        "coordinates": [
          -33.046102212743506,
          51.01918424539665
        ]
      }
    },
    {
      "type": "Feature",
      "properties": {
        "norad_id": 30077,
        "name": "FENGYUN 1C DEB",
        "group": "fengyun-1c-debris",
        "lat": -16.947636847117856,
        "lon": -175.21608156918177,
        "alt_km": 864.996619649437,
        "timestamp": "2025-12-17T23:38:07.127605+00:00",
        "meta_object_name": "FENGYUN 1C DEB",
        "meta_object_id": "1999-025QE",
        "meta_epoch": "2025-12-17T13:03:03.007584",
        "meta_mean_motion": 14.07080331,
        "meta_eccentricity": 0.0020444,
        "meta_inclination": 98.7578,
        "meta_ra_of_asc_node": 7.0492,
        "meta_arg_of_pericenter": 249.9867,
        "meta_mean_anomaly": 234.4961,
        "meta_ephemeris_type": 0,
        "meta_classification_type": "U",
        "meta_norad_cat_id": 30077,
        "meta_element_set_no": 999,
        "meta_rev_at_epoch": 97180,
        "meta_bstar": -4.5922791e-05,
        "meta_mean_motion_dot": -1.2e-06,
        "meta_mean_motion_ddot": 0,
        "tle_line1": "1 30077U 99025QE  25351.54378481 -.00000120  00000+0 -45923-4 0  9999",
        "tle_line2": "2 30077  98.7578   7.0492 0020444 249.9867 234.4961 14.07080331971805"
      },
      "geometry": {
        "type": "Point",
        "coordinates": [
          -175.21608156918177,
          -16.947636847117856
        ]
      }
    },
    {
      "type": "Feature",
      "properties": {
        "norad_id": 30078,
        "name": "FENGYUN 1C DEB",
        "group": "fengyun-1c-debris",
        "lat": 29.84589726712683,
        "lon": 61.75053715933013,
        "alt_km": 834.9056669648871,
        "timestamp": "2025-12-17T23:38:07.127615+00:00",
        "meta_object_name": "FENGYUN 1C DEB",
        "meta_object_id": "1999-025QF",
        "meta_epoch": "2025-12-17T05:13:49.461312",
        "meta_mean_motion": 14.23160372,
        "meta_eccentricity": 0.00529822,
        "meta_inclination": 98.8326,
        "meta_ra_of_asc_node": 66.0998,
        "meta_arg_of_pericenter": 267.4174,
        "meta_mean_anomaly": 155.6604,
        "meta_ephemeris_type": 0,
        "meta_classification_type": "U",
        "meta_norad_cat_id": 30078,
        "meta_element_set_no": 999,
        "meta_rev_at_epoch": 97177,
        "meta_bstar": 0.0010090533,
        "meta_mean_motion_dot": 2.268e-05,
        "meta_mean_motion_ddot": 0,
        "tle_line1": "1 30078U 99025QF  25351.21793358  .00002268  00000+0  10091-2 0  9997",
        "tle_line2": "2 30078  98.8326  66.0998 0052982 267.4174 155.6604 14.23160372971778"
      },
      "geometry": {
        "type": "Point",
        "coordinates": [
          61.75053715933013,
          29.84589726712683
        ]
      }
    },
    {
      "type": "Feature",
      "properties": {
        "norad_id": 30079,
        "name": "FENGYUN 1C DEB",
        "group": "fengyun-1c-debris",
        "lat": 63.82726883330468,
        "lon": 28.575987877741984,
        "alt_km": 932.5379311608458,
        "timestamp": "2025-12-17T23:38:07.127625+00:00",
        "meta_object_name": "FENGYUN 1C DEB",
        "meta_object_id": "1999-025QG",
        "meta_epoch": "2025-12-17T15:32:29.406048",
        "meta_mean_motion": 14.0079706,
        "meta_eccentricity": 0.0084735,
        "meta_inclination": 99.0344,
        "meta_ra_of_asc_node": 47.1307,
        "meta_arg_of_pericenter": 285.1556,
        "meta_mean_anomaly": 239.8742,
        "meta_ephemeris_type": 0,
        "meta_classification_type": "U",
        "meta_norad_cat_id": 30079,
        "meta_element_set_no": 999,
        "meta_rev_at_epoch": 96606,
        "meta_bstar": 0.00013657516,
        "meta_mean_motion_dot": 1.65e-06,
        "meta_mean_motion_ddot": 0,
        "tle_line1": "1 30079U 99025QG  25351.64756257  .00000165  00000+0  13658-3 0  9999",
        "tle_line2": "2 30079  99.0344  47.1307 0084735 285.1556 239.8742 14.00797060966067"
      },
      "geometry": {
        "type": "Point",
        "coordinates": [
          28.575987877741984,
          63.82726883330468
        ]
      }
    }
  ]
}